PROBA-1                 
1 26958U 01049B   26202.31887096  .00001141  00000+0  77018-4 0  9991
2 26958  97.9604 212.0466 0055038   9.1336 351.0878 15.07626798348762
CUTE-1 (CO-55)          
1 27844U 03031E   26201.96672872  .00000174  00000+0  94328-4 0  9991
2 27844  98.6745 210.1018 0010867  87.8923 272.3500 14.24353883196486
CUBESAT XI-IV (CO-57)   
1 27848U 03031J   26201.48019381  .00000116  00000+0  70115-4 0  9996
2 27848  98.6776 209.3071 0010684 105.6000 254.6359 14.23636281196115
APRIZESAT 4             
1 35684U 09041D   26202.10736756  .00000480  00000+0  63918-4 0  9999
2 35684  98.1399 278.1023 0042602 209.9642 149.9133 14.83919294916394
APRIZESAT 3             
1 35686U 09041F   26202.00345657  .00000184  00000+0  21717-4 0  9998
2 35686  98.2107 356.8572 0060684 316.4447  43.1990 14.96317676921431
PROBA-2                 
1 36037U 09059B   26202.21547830  .00000122  00000+0  38914-4 0  9997
2 36037  98.2464  25.0987 0013447 170.1563 189.9900 14.54875265886473
APRIZESAT 5             
1 37792U 11044E   26201.78602829  .00000405  00000+0  58626-4 0  9990
2 37792  98.2447 135.7807 0050722 254.2025 105.3591 14.81132782803766
APRIZESAT 6             
1 37793U 11044F   26202.01300587  .00000441  00000+0  69672-4 0  9997
2 37793  98.2331 113.1997 0042591 339.5794  39.4778 14.76962228802149
PROBA-V                 
1 39159U 13021A   26202.20715615  .00000040  00000+0  35722-4 0  9999
2 39159  98.3610 179.1385 0005022  45.8408 314.3184 14.23604137685956
APRIZESAT 7             
1 39416U 13066A   26202.09838132  .00000814  00000+0  85651-4 0  9996
2 39416  97.7724 154.8353 0037341  98.5210 262.0243 14.91628062686281
APRIZESAT 8             
1 39425U 13066K   26201.83885243  .00000487  00000+0  58582-4 0  9991
2 39425  97.8231 148.8410 0045981 173.2600 186.9245 14.87701914684675
BUGSAT-1 (TITA)         
1 40014U 14033E   26202.29779067  .00003657  00000+0  19286-3 0  9998
2 40014  98.0423 296.8503 0028875  66.2157 294.2097 15.15918533661004
SAUDISAT 4              
1 40016U 14033G   26202.20361397  .00000347  00000+0  52579-4 0  9990
2 40016  97.7626 347.1706 0043806 324.1946  35.6331 14.79579551651105
APRIZESAT 9             
1 40018U 14033J   26202.07630138  .00000416  00000+0  68320-4 0  9997
2 40018  97.9102 334.4542 0067500  91.4325 269.4618 14.74257504648553
APRIZESAT 10            
1 40019U 14033K   26201.86807264  .00000423  00000+0  73952-4 0  9995
2 40019  97.9688 328.0834 0079173 165.2923 195.0614 14.70915553647201
TECHDEMOSAT-1 (TDS-1)   
1 40076U 14037H   26201.94154177  .00005642  00000+0  31728-3 0  9991
2 40076  98.3837 197.5151 0007336 141.9058 218.2691 15.13727880653334
TECHNOSAT               
1 42829U 17042E   26202.15641112  .00001648  00000+0  11962-3 0  9992
2 42829  97.4324 358.5326 0016874 343.6366  16.4315 15.05131291491816
FLYING LAPTOP           
1 42831U 17042G   26202.31182274  .00001712  00000+0  13695-3 0  9999
2 42831  97.4843 356.5672 0019312  13.0997 347.0725 15.01335900491575
HAWK-A                  
1 43765U 18099H   26202.14392779  .00005342  00000+0  21317-3 0  9996
2 43765  97.3891 253.9415 0035361 163.2488 196.9927 15.25013659418275
HAWK-B                  
1 43794U 18099AN  26202.14062611  .00004604  00000+0  19520-3 0  9990
2 43794  97.3941 253.2814 0031988 181.0961 179.0211 15.23157528418207
HAWK-C                  
1 43799U 18099AT  26202.10827994  .00006369  00000+0  22638-3 0  9998
2 43799  97.3868 254.9875 0040900 163.0535 197.2082 15.28549910419097
SALSAT                  
1 46495U 20068K   26202.28424147  .00005612  00000+0  19458-3 0  9991
2 46495  97.8867 207.4380 0009855 171.6754 188.4651 15.30225780320570
HAWK-2C                 
1 47502U 21006CT  26202.11876357  .00004794  00000+0  14320-3 0  9993
2 47502  97.2260 245.7566 0008646  84.1516 276.0713 15.35034767304701
HAWK-2A                 
1 47505U 21006CW  26202.05571857  .00004954  00000+0  14783-3 0  9997
2 47505  97.2301 246.3922 0008214  87.9319 272.2865 15.35056059304698
HAWK-2B                 
1 47508U 21006CZ  26202.11393176  .00005362  00000+0  15911-3 0  9991
2 47508  97.2174 244.7281 0008740  86.0266 274.1977 15.35188101304705
HAWK-3B                 
1 48931U 21059BE  26202.08367896  .00037840  00000+0  28735-3 0  9990
2 48931  97.6636  42.0684 0004950 177.9803 182.1481 15.72233050283175
HAWK-3C                 
1 48948U 21059BX  26202.14700693  .00035131  00000+0  26687-3 0  9996
2 48948  97.6750  47.8813 0005258 177.8782 182.2503 15.72236935283186
HAWK-3A                 
1 48957U 21059CG  26202.08324934  .00037085  00000+0  28164-3 0  9991
2 48957  97.6699  44.9888 0005098 180.1984 179.9277 15.72234327283174
HAWK-5C                 
1 52754U 22057Y   26201.95879323  .00013600  00000+0  22402-3 0  9998
2 52754  97.6629   3.8388 0002387 317.5371  42.5696 15.52456657231588
HAWK-5B                 
1 52756U 22057AA  26201.95862300  .00013309  00000+0  21930-3 0  9998
2 52756  97.6640   2.1933 0003051 303.0928  57.0031 15.52452064231580
